1 40549U 15019A 26161.85690506 -.00000178 00000+0 00000+0 0 9998 
2 40549 49.2085 295.5396 0038713 190.8479 173.2945 1.00251826 41013 
1 40730U 15033A 26161.73928327 -.00000029 00000+0 00000+0 0 9993 
2 40730 53.9875 267.3525 0115042 30.2064 330.4712 2.00556498 79860 
1 40748U 15037A 26160.80604019 -.00000061 00000+0 00000+0 0 9998 
2 40748 54.8786 302.3008 0008083 261.0126 98.8850 1.86232343 73983 
1 40749U 15037B 26161.55122947 -.00000064 00000+0 00000+0 0 9990 
2 40749 54.8737 302.2626 0003578 61.0536 298.9696 1.86254784 74000 
1 40889U 15045A 26144.30399159 -.00000014 00000+0 00000+0 0 9994 
2 40889 54.9357 222.4171 0006405 263.0112 96.9692 1.67409242 66562 
1 40890U 15045B 26160.83170316 .00000048 00000+0 00000+0 0 9990 
2 40890 54.9468 221.8077 0001682 339.7025 20.3746 1.70473928 66917 
1 40938U 15053A 26161.75511332 -.00000150 00000+0 00000+0 0 9996 
2 40938 49.2318 258.8610 0065400 191.8182 175.7790 1.00261032 39292 
1 41019U 15062A 26160.29992778 -.00000064 00000+0 00000+0 0 9996 
2 41019 56.9540 31.1152 0111654 231.1327 127.9172 2.00566961 77677 
1 41028U 15065A 26162.07132951 -.00000240 00000+0 00000+0 0 9992 
2 41028 0.0859 266.0295 0004087 159.7189 312.8516 1.00270477 38733 
1 41174U 15079A 26160.99973083 .00000020 00000+0 00000+0 0 9992 
2 41174 55.8233 101.4592 0005400 340.4931 19.4557 1.70473707 64658 
1 41175U 15079B 26160.63344479 .00000022 00000+0 00000+0 0 9997 
2 41175 55.8212 101.4660 0004898 340.3551 19.5970 1.70473549 65069 
1 41241U 16003A 26160.64908404 -.00000299 00000+0 00000+0 0 9991 
2 41241 33.2186 59.8594 0017926 179.3195 4.1979 1.00268584 38002 
1 41328U 16007A 26158.89450904 .00000008 00000+0 00000+0 0 9999 
2 41328 55.5185 89.8281 0096231 247.4008 111.5747 2.00552243 75653 
1 41330U 16008A 26161.71553164 -.00000040 00000+0 00000+0 0 9997 
2 41330 65.0259 313.2287 0011030 197.5647 162.3913 2.13102560 80485 
1 41434U 16021A 26161.63447332 -.00000157 00000+0 00000+0 0 9996 
2 41434 60.2161 38.1061 0057088 231.5348 311.0293 1.00260596 37410 
1 41469U 16027A 26161.79334002 -.00000318 00000+0 00000+0 0 9995 
2 41469 5.1824 97.6208 0007518 353.4220 223.2768 1.00269301 37112 
1 41549U 16030A 26158.99767407 .00000043 00000+0 00000+0 0 9999 
2 41549 55.0982 221.9480 0002777 325.1627 34.9006 1.70473969 62511 
1 41550U 16030B 26159.84153038 .00000045 00000+0 00000+0 0 9997 
2 41550 55.0968 221.9227 0003068 229.8535 130.2012 1.70474105 62529 
1 41586U 16037A 26162.00343946 -.00000336 00000+0 00000+0 0 9998 
2 41586 1.7034 69.2647 0007082 3.5009 298.3387 1.00267431 6829 
1 41589U 16038B 26161.95842203 .00000006 00000+0 00000+0 0 9998 
2 41589 0.0090 159.3478 0000255 217.2674 110.7257 1.00272883 36605 
1 41859U 16069A 26160.11980086 .00000023 00000+0 00000+0 0 9990 
2 41859 55.4940 101.3095 0005423 327.7880 32.1516 1.70473627 59261 
1 41860U 16069B 26161.14639969 .00000018 00000+0 00000+0 0 9991 
2 41860 55.4922 101.2762 0004678 355.7318 4.2331 1.70473868 59533 
1 41861U 16069C 26160.34048786 .00000022 00000+0 00000+0 0 9999 
2 41861 55.4937 101.3064 0005123 311.5883 48.3399 1.70474169 59380 
1 41862U 16069D 26159.90009922 .00000024 00000+0 00000+0 0 9991 
2 41862 55.4924 101.3112 0004328 318.2384 41.7019 1.70473875 59500 
1 42709U 17026A 26159.53201694 .00000076 00000+0 00000+0 0 9992 
2 42709 0.0197 332.0701 0000516 88.0806 259.1449 1.00270105 7343 
1 42738U 17028A 26160.53939596 -.00000147 00000+0 00000+0 0 9997 
2 42738 39.4388 243.2674 0760581 269.1776 81.0235 1.00285994 7547 
1 42917U 17048A 26162.00673280 -.00000331 00000+0 00000+0 0 9992 
2 42917 0.0636 171.4245 0002562 277.5648 299.7948 1.00267968 32190 
1 42939U 17055A 26161.08408941 .00000114 00000+0 00000+0 0 9999 
2 42939 64.0782 192.1263 0010679 240.0455 119.9210 2.13102025 67825 
1 42965U 17062A 26161.36564781 -.00000314 00000+0 00000+0 0 9995 
2 42965 40.1123 343.5704 0745142 271.6178 272.7130 1.00252759 31737 
1 43001U 17069A 26161.15259502 -.00000050 00000+0 00000+0 0 9990 
2 43001 56.6854 63.3171 0010600 324.5878 35.3649 1.86231422 58472 
1 43002U 17069B 26161.09131881 -.00000050 00000+0 00000+0 0 9993 
2 43002 56.6850 63.3549 0009294 348.6760 11.3261 1.86231013 58461 
